{
  "links" : {
    "next" : "https://api.nasa.gov/neo/rest/v1/feed?start_date=2000-06-09&end_date=2000-06-09&detailed=true&api_key=t0TVs3DtDT2H8Oy2Zy8m2eVrNsAVKAexjcZXUckd",
    "prev" : "https://api.nasa.gov/neo/rest/v1/feed?start_date=2000-06-07&end_date=2000-06-07&detailed=true&api_key=t0TVs3DtDT2H8Oy2Zy8m2eVrNsAVKAexjcZXUckd",
    "self" : "https://api.nasa.gov/neo/rest/v1/feed?start_date=2000-06-08&end_date=2000-06-08&detailed=true&api_key=t0TVs3DtDT2H8Oy2Zy8m2eVrNsAVKAexjcZXUckd"
  },
  "element_count" : 7,
  "near_earth_objects" : {
    "2000-06-08" : [ {
      "links" : {
        "self" : "https://api.nasa.gov/neo/rest/v1/neo/3042552?api_key=t0TVs3DtDT2H8Oy2Zy8m2eVrNsAVKAexjcZXUckd"
      },
      "neo_reference_id" : "3042552",
      "name" : "(2000 KC)",
      "nasa_jpl_url" : "http://ssd.jpl.nasa.gov/sbdb.cgi?sstr=3042552",
      "absolute_magnitude_h" : 20.2,
      "estimated_diameter" : {
        "kilometers" : {
          "estimated_diameter_min" : 0.2424124811,
          "estimated_diameter_max" : 0.5420507863
        },
        "meters" : {
          "estimated_diameter_min" : 242.4124811008,
          "estimated_diameter_max" : 542.0507863358
        },
        "miles" : {
          "estimated_diameter_min" : 0.1506280858,
          "estimated_diameter_max" : 0.3368146392
        },
        "feet" : {
          "estimated_diameter_min" : 795.3165644948,
          "estimated_diameter_max" : 1778.3819018419
        }
      },
      "is_potentially_hazardous_asteroid" : false,
      "close_approach_data" : [ {
        "close_approach_date" : "2000-06-08",
        "epoch_date_close_approach" : 960447600000,
        "relative_velocity" : {
          "kilometers_per_second" : "7.3740909999",
          "kilometers_per_hour" : "26546.7275996145",
          "miles_per_hour" : "16495.1041576605"
        },
        "miss_distance" : {
          "astronomical" : "0.225991859",
          "lunar" : "87.9108352661",
          "kilometers" : "33807900",
          "miles" : "21007256"
        },
        "orbiting_body" : "Earth"
      } ],
      "orbital_data" : {
        "orbit_id" : "13",
        "orbit_determination_date" : "2017-08-15 05:22:30",
        "orbit_uncertainty" : "1",
        "minimum_orbit_intersection" : ".179042",
        "jupiter_tisserand_invariant" : "3.454",
        "epoch_osculation" : "2458000.5",
        "eccentricity" : ".4697665989355432",
        "semi_major_axis" : "2.250405627579226",
        "inclination" : "10.56613877359694",
        "ascending_node_longitude" : "75.06887717019367",
        "orbital_period" : "1233.07540298597",
        "perihelion_distance" : "1.193240229685926",
        "perihelion_argument" : "180.3958953341522",
        "aphelion_distance" : "3.307571025472526",
        "perihelion_time" : "2457884.868426287304",
        "mean_anomaly" : "33.7589789203216",
        "mean_motion" : ".2919529488044587",
        "equinox" : "J2000"
      }
    }, {
      "links" : {
        "self" : "https://api.nasa.gov/neo/rest/v1/neo/3127389?api_key=t0TVs3DtDT2H8Oy2Zy8m2eVrNsAVKAexjcZXUckd"
      },
      "neo_reference_id" : "3127389",
      "name" : "(2002 LW)",
      "nasa_jpl_url" : "http://ssd.jpl.nasa.gov/sbdb.cgi?sstr=3127389",
      "absolute_magnitude_h" : 22.4,
      "estimated_diameter" : {
        "kilometers" : {
          "estimated_diameter_min" : 0.0880146521,
          "estimated_diameter_max" : 0.1968067451
        },
        "meters" : {
          "estimated_diameter_min" : 88.0146520901,
          "estimated_diameter_max" : 196.8067450894
        },
        "miles" : {
          "estimated_diameter_min" : 0.0546897524,
          "estimated_diameter_max" : 0.122290004
        },
        "feet" : {
          "estimated_diameter_min" : 288.7619911632,
          "estimated_diameter_max" : 645.6914415591
        }
      },
      "is_potentially_hazardous_asteroid" : false,
      "close_approach_data" : [ {
        "close_approach_date" : "2000-06-08",
        "epoch_date_close_approach" : 960447600000,
        "relative_velocity" : {
          "kilometers_per_second" : "13.8301558655",
          "kilometers_per_hour" : "49788.5611157816",
          "miles_per_hour" : "30936.6756555255"
        },
        "miss_distance" : {
          "astronomical" : "0.3402810171",
          "lunar" : "132.3693084717",
          "kilometers" : "50905316",
          "miles" : "31631096"
        },
        "orbiting_body" : "Earth"
      } ],
      "orbital_data" : {
        "orbit_id" : "20",
        "orbit_determination_date" : "2017-04-06 09:15:06",
        "orbit_uncertainty" : "2",
        "minimum_orbit_intersection" : ".0328365",
        "jupiter_tisserand_invariant" : "5.982",
        "epoch_osculation" : "2458000.5",
        "eccentricity" : ".1018078934542773",
        "semi_major_axis" : "1.016447568813216",
        "inclination" : "11.17416757818649",
        "ascending_node_longitude" : "250.1265665370786",
        "orbital_period" : "374.3052331592648",
        "perihelion_distance" : ".9129651830256208",
        "perihelion_argument" : "126.1467636307416",
        "aphelion_distance" : "1.119929954600811",
        "perihelion_time" : "2458158.563619025993",
        "mean_anomaly" : "207.9772714661844",
        "mean_motion" : ".9617819044673148",
        "equinox" : "J2000"
      }
    }, {
      "links" : {
        "self" : "https://api.nasa.gov/neo/rest/v1/neo/3719859?api_key=t0TVs3DtDT2H8Oy2Zy8m2eVrNsAVKAexjcZXUckd"
      },
      "neo_reference_id" : "3719859",
      "name" : "(2015 KK57)",
      "nasa_jpl_url" : "http://ssd.jpl.nasa.gov/sbdb.cgi?sstr=3719859",
      "absolute_magnitude_h" : 27.5,
      "estimated_diameter" : {
        "kilometers" : {
          "estimated_diameter_min" : 0.008405334,
          "estimated_diameter_max" : 0.0187948982
        },
        "meters" : {
          "estimated_diameter_min" : 8.4053340207,
          "estimated_diameter_max" : 18.7948982439
        },
        "miles" : {
          "estimated_diameter_min" : 0.0052228308,
          "estimated_diameter_max" : 0.0116786047
        },
        "feet" : {
          "estimated_diameter_min" : 27.5765560686,
          "estimated_diameter_max" : 61.6630539546
        }
      },
      "is_potentially_hazardous_asteroid" : false,
      "close_approach_data" : [ {
        "close_approach_date" : "2000-06-08",
        "epoch_date_close_approach" : 960447600000,
        "relative_velocity" : {
          "kilometers_per_second" : "2.9485096898",
          "kilometers_per_hour" : "10614.6348832276",
          "miles_per_hour" : "6595.5213250811"
        },
        "miss_distance" : {
          "astronomical" : "0.0594381083",
          "lunar" : "23.1214237213",
          "kilometers" : "8891815",
          "miles" : "5525117.5"
        },
        "orbiting_body" : "Earth"
      } ],
      "orbital_data" : {
        "orbit_id" : "15",
        "orbit_determination_date" : "2017-04-06 08:33:35",
        "orbit_uncertainty" : "3",
        "minimum_orbit_intersection" : ".0188862",
        "jupiter_tisserand_invariant" : "5.680",
        "epoch_osculation" : "2458000.5",
        "eccentricity" : ".06366104064143226",
        "semi_major_axis" : "1.091758388289362",
        "inclination" : "1.031742427367126",
        "ascending_node_longitude" : "194.426902070409",
        "orbital_period" : "416.6661626908975",
        "perihelion_distance" : "1.022255913161848",
        "perihelion_argument" : "100.0856704385641",
        "aphelion_distance" : "1.161260863416876",
        "perihelion_time" : "2458053.145468705932",
        "mean_anomaly" : "314.5142600211685",
        "mean_motion" : ".8640010450454191",
        "equinox" : "J2000"
      }
    } ]
  }
}